IRIDIUM 921             
1 24873U 97034E   25034.40362244  .00898595  39881-3  15799-2 0  9995
2 24873  86.3594 170.3068 0006622 301.0705 117.1877 16.02103539511445
IRIDIUM 26              
1 24903U 97043A   25034.84401493  .00001015  00000+0  33644-3 0  9997
2 24903  86.4017 166.5920 0002071  99.9732 260.1699 14.36954198438068
IRIDIUM 22              
1 24907U 97043E   25034.45550595  .00000975  00000+0  33067-3 0  9999
2 24907  86.4018 170.1734 0002063  93.2089 266.9344 14.35788086437587
DUMMY MASS 1            
1 24925U 97048A   25034.49312199  .00001104  00000+0  12096-3 0  9998
2 24925  86.3366 197.0805 0004403 256.4832 103.5902 14.86772269485264
DUMMY MASS 2            
1 24926U 97048B   25034.50036278  .00001090  00000+0  12007-3 0  9998
2 24926  86.3365 198.6589 0005180 273.7912  86.2720 14.86525822485046
IRIDIUM 29              
1 24944U 97051A   25034.52447226  .00001142  00000+0  38450-3 0  9991
2 24944  86.3977 199.8947 0001970  85.3744 274.7678 14.36258060434085
IRIDIUM 33              
1 24946U 97051C   25034.85032416  .00000702  00000+0  24089-3 0  9994
2 24946  86.3896 199.0086 0008988 142.1736 218.0093 14.34749062433639
IRIDIUM 28              
1 24948U 97051E   25034.51483101  .00001017  00000+0  33529-3 0  9999
2 24948  86.3988 197.4926 0002198 102.5554 257.5889 14.37195303434642
